STARLINK-32372          
1 61960U 24210B   26068.29866181  .00037691  00000+0  13711-2 0  9994
2 61960  42.9993 181.7408 0001873 287.3344  72.7303 15.27605117 74726
TEVEL2-2                
1 63219U 25052K   26068.64848259  .00020339  00000+0  69428-3 0  9991
2 63219  97.3987 324.7700 0004693 105.7930 254.3828 15.30343745 54855
